DMSP 5D-3 F16 (USA 172) 
1 28054U 03048A   26177.30273245  .00000015  00000+0  31418-4 0  9999
2 28054  98.9888 201.1913 0008080 117.3549  10.5354 14.14483633170771
METEOSAT-9 (MSG-2)      
1 28912U 05049B   26176.81915796  .00000125  00000+0  00000+0 0  9994
2 28912   9.3807  54.0841 0001993 355.8110 204.6730  1.00277120  7085
DMSP 5D-3 F17 (USA 191) 
1 29522U 06050A   26177.29145043  .00000040  00000+0  42991-4 0  9994
2 29522  98.7378 183.6752 0010815  35.6006 324.5887 14.14993958 13713
FENGYUN 3A              
1 32958U 08026A   26177.28067157  .00000064  00000+0  50626-4 0  9994
2 32958  98.6884 117.9439 0009863 100.2197 260.0092 14.19572949936695
GOES 14                 
1 35491U 09033A   26177.02629252 -.00000312  00000+0  00000+0 0  9993
2 35491   1.7132  82.9457 0002225  18.3992 318.9543  1.00108583  6674
DMSP 5D-3 F18 (USA 210) 
1 35951U 09057A   26177.26342405  .00000242  00000+0  14845-3 0  9995
2 35951  98.9040 158.0129 0010175 220.9423 139.0987 14.14901747860871
EWS-G2 (GOES 15)        
1 36411U 10008A   26177.10788244  .00000030  00000+0  00000+0 0  9992
2 36411   1.3019  82.7321 0005299  42.7545 251.1517  1.00268017 59726
COMS 1                  
1 36744U 10032A   26177.24519458  .00000053  00000+0  00000+0 0  9997
2 36744   4.8281  75.2521 0011915  12.8149 311.8972  0.99166347 51173
FENGYUN 3B              
1 37214U 10059A   26177.29891584 -.00000144  00000+0 -51277-4 0  9997
2 37214  98.9620 223.3522 0022424 158.2234 333.5309 14.14841799808719
SUOMI NPP               
1 37849U 11061A   26177.29226840  .00000059  00000+0  49269-4 0  9993
2 37849  98.7954 118.1061 0001008 340.9026  19.2112 14.19519176759737
METEOSAT-10 (MSG-3)     
1 38552U 12035B   26177.02380453  .00000000  00000+0  00000+0 0  9990
2 38552   4.6924  60.9829 0001741   8.1161 213.8156  1.00268444 50947
METOP-B                 
1 38771U 12049A   26177.27006733  .00000092  00000+0  62098-4 0  9992
2 38771  98.6500 228.5879 0001664 352.9810   7.1344 14.21441627714555
INSAT-3D                
1 39216U 13038B   26177.26351534 -.00000329  00000+0  00000+0 0  9991
2 39216   1.9496  82.4380 0001147   0.6257  55.7124  1.00272104 47170
FENGYUN 3C              
1 39260U 13052A   26177.23136150  .00000090  00000+0  67081-4 0  9999
2 39260  98.4983 150.6910 0014707   2.3458 357.7784 14.15757068659843
METEOR-M 2              
1 40069U 14037A   26177.22590987  .00000138  00000+0  82430-4 0  9991
2 40069  98.5113 152.6441 0006358  21.7350 338.4097 14.21463782620607
HIMAWARI-8              
1 40267U 14060A   26176.99948780 -.00000265  00000+0  00000+0 0  9998
2 40267   0.0152 307.3027 0001539 150.6858 316.6040  1.00270734 42844
FENGYUN 2G              
1 40367U 14090A   26176.75853483 -.00000296  00000+0  00000+0 0  9995
2 40367   5.6611  72.7168 0003599 151.3751  62.5277  1.00269333 42081
METEOSAT-11 (MSG-4)     
1 40732U 15034A   26177.23973456  .00000070  00000+0  00000+0 0  9996
2 40732   3.2232  71.0531 0002259 347.3632 311.6946  1.00265901  7307
ELEKTRO-L 2             
1 41105U 15074A   26176.94987031 -.00000113  00000+0  00000+0 0  9995
2 41105   6.7170  70.4166 0000727 286.6211 244.4527  1.00271163 38594
SENTINEL-3A             
1 41335U 16011A   26177.26332130  .00000092  00000+0  56077-4 0  9997
2 41335  98.6246 244.5165 0001433  97.0827 263.0517 14.26734969539354
INSAT-3DR               
1 41752U 16054A   26177.10996245 -.00000066  00000+0  00000+0 0  9995
2 41752   0.1285  86.2314 0010078 187.0454 114.5183  1.00272380 35909
HIMAWARI-9              
1 41836U 16064A   26177.25977184 -.00000264  00000+0  00000+0 0  9996
2 41836   0.0189  37.9796 0001139  73.7918  36.8940  1.00271252 35303
GOES 16                 
1 41866U 16071A   26177.25540108 -.00000080  00000+0  00000+0 0  9995
2 41866   0.3642  85.5313 0000559   4.8132 171.2863  1.00272055 35192
FENGYUN 4A              
1 41882U 16077A   26177.26238867 -.00000348  00000+0  00000+0 0  9993
2 41882   2.3463  80.1926 0008235 152.1511 260.1043  1.00264762 35027
CYGFM05                 
1 41884U 16078A   26176.45144720  .00024975  00000+0  33396-3 0  9999
2 41884  34.9556 205.8511 0008007 227.3909 132.6141 15.56995331530045
CYGFM04                 
1 41885U 16078B   26177.22703038  .00033442  00000+0  36905-3 0  9997
2 41885  34.9304 167.9432 0007305 270.4450  89.5439 15.61985270530415
CYGFM02                 
1 41886U 16078C   26177.21019643  .00039486  00000+0  38546-3 0  9996
2 41886  34.9384 162.3241 0008280 272.3759  87.6019 15.65056585530580
CYGFM01                 
1 41887U 16078D   26176.43652675  .00026106  00000+0  34012-3 0  9997
2 41887  34.9386 206.9400 0007735 221.6360 138.3776 15.57683122529995
CYGFM08                 
1 41888U 16078E   26177.21344613  .00028799  00000+0  33731-3 0  9992
2 41888  34.9411 181.1245 0009144 256.4990 103.4717 15.60451389530382
CYGFM07                 
1 41890U 16078G   26177.23600534  .00029438  00000+0  34361-3 0  9995
2 41890  34.9426 169.3081 0007669 270.1700  89.8146 15.60553925530415
CYGFM03                 
1 41891U 16078H   26177.20705361  .00029116  00000+0  34002-3 0  9992
2 41891  34.9382 171.4354 0007335 258.4224 101.5677 15.60544773530382
